      2.10          N: GNSS NAV DATA                        RINEX VERSION / TYPE
fic2rin                                 06/03/2021 00:17:09 PGM / RUN BY / DATE
                                                            END OF HEADER
 1 21  6  2  6  0  0.0 6.711669266224e-04-1.159605744760e-11 0.000000000000e+00
    4.700000000000e+01 2.006250000000e+01 3.946592962867e-09 1.234946968727e+00
    9.946525096893e-07 1.095518469810e-02 5.876645445824e-06 5.153685565948e+03
    2.808000000000e+05-1.396983861923e-07 2.720957629733e+00 1.043081283569e-07
    9.846602190733e-01 2.790937500000e+02 8.518008386383e-01-8.080336578452e-09
    1.557207721095e-10 1.000000000000e+00 2.160000000000e+03 0.000000000000e+00
    2.400000000000e+00 0.000000000000e+00 5.122274160385e-09 4.700000000000e+01
    2.736000000000e+05 4.000000000000e+00
 4 21  6  2  6  0  0.0-1.985165290534e-04-1.364242052659e-12 0.000000000000e+00
    1.310000000000e+02-3.131250000000e+01 4.600191616446e-09 2.853834097051e+00
   -1.531094312668e-06 1.251875306480e-03 9.654089808464e-06 5.153742446899e+03
    2.808000000000e+05-2.421438694000e-08-1.444392053367e+00-2.421438694000e-08
    9.601073934696e-01 1.962187500000e+02-2.918337053206e+00-7.925330121811e-09
    1.257195224370e-10 1.000000000000e+00 2.160000000000e+03 0.000000000000e+00
    2.400000000000e+00 0.000000000000e+00-4.190951585770e-09 1.310000000000e+02
    2.736000000000e+05 4.000000000000e+00
 3 21  6  2  6  0  0.0-1.805457286537e-04-1.045918907039e-11 0.000000000000e+00
    7.300000000000e+01-5.681250000000e+01 4.494115769389e-09 1.873174904796e-01
   -3.093853592873e-06 3.542689722963e-03 5.802139639854e-06 5.153588483810e+03
    2.808000000000e+05-5.587935447693e-09-2.525118065052e+00 1.303851604462e-08
    9.695256425089e-01 2.769062500000e+02 8.475398000746e-01-8.167840223330e-09
    5.893102614235e-11 1.000000000000e+00 2.160000000000e+03 0.000000000000e+00
    2.400000000000e+00 0.000000000000e+00 1.862645149231e-09 7.300000000000e+01
    2.736000000000e+05 4.000000000000e+00
 9 21  6  2  6  0  0.0-3.489567898214e-04-2.046363078989e-12 0.000000000000e+00
    1.400000000000e+01-3.134375000000e+01 4.813771941495e-09-2.400994896378e+00
   -1.572072505951e-06 1.855100737885e-03 9.765848517418e-06 5.153775493622e+03
    2.808000000000e+05 1.117587089539e-08-1.495292314458e+00 2.793967723846e-08
    9.529713610023e-01 1.886562500000e+02 1.837506643299e+00-8.015691028563e-09
    1.239337337660e-10 1.000000000000e+00 2.160000000000e+03 0.000000000000e+00
    2.400000000000e+00 0.000000000000e+00 1.396983861923e-09 1.400000000000e+01
    2.736000000000e+05 4.000000000000e+00
 6 21  6  2  6  0  0.0 2.214126288891e-05 4.320099833421e-12 0.000000000000e+00
    1.700000000000e+01 2.303125000000e+01 3.914091609055e-09 1.449712974616e+00
    1.328065991402e-06 2.167572267354e-03 5.234032869339e-06 5.153773176193e+03
    2.808000000000e+05 1.136213541031e-07 2.712707492984e+00-4.284083843231e-08
    9.841122567742e-01 2.895937500000e+02-9.645485947834e-01-7.941759377584e-09
    3.196561721055e-10 1.000000000000e+00 2.160000000000e+03 0.000000000000e+00
    2.400000000000e+00 0.000000000000e+00 4.190951585770e-09 1.700000000000e+01
    2.736000000000e+05 4.000000000000e+00
32 21  6  2  6  0  0.0 1.979619264603e-05-1.136868377216e-12 0.000000000000e+00
    1.200000000000e+01-4.609375000000e+01 4.650908014701e-09-2.128444765971e+00
   -2.332031726837e-06 4.997556563467e-03 9.853392839432e-06 5.153680049896e+03
    2.808000000000e+05 1.136213541031e-07-1.485228633277e+00-5.587935447693e-09
    9.569413095895e-01 1.861250000000e+02-2.363663203397e+00-7.958902948826e-09
    1.560779298437e-10 1.000000000000e+00 2.160000000000e+03 0.000000000000e+00
    2.400000000000e+00 0.000000000000e+00 4.656612873077e-10 1.200000000000e+01
    2.736000000000e+05 4.000000000000e+00
18 21  6  2  6  0  0.0 3.484915941954e-04-1.477928890381e-12 0.000000000000e+00
    7.000000000000e+00 2.581250000000e+01 4.307679432139e-09 1.551934725042e+00
    1.326203346252e-06 1.461861538701e-03 5.513429641724e-06 5.153663248062e+03
    2.808000000000e+05-3.352761268616e-08 2.732608730636e+00 2.235174179077e-08
    9.683737071662e-01 2.772812500000e+02 2.892804572808e+00-8.125338452961e-09
    2.960837616486e-10 1.000000000000e+00 2.160000000000e+03 0.000000000000e+00
    2.400000000000e+00 0.000000000000e+00-8.381903171539e-09 7.000000000000e+00
    2.736000000000e+05 4.000000000000e+00
10 21  6  2  6  0  0.0-1.340862363577e-04-7.617018127348e-12 0.000000000000e+00
    4.300000000000e+01-6.250000000000e+01 4.510902182897e-09-7.870561235667e-01
   -3.112480044365e-06 6.655992241576e-03 5.302950739861e-06 5.153673929214e+03
    2.808000000000e+05 1.452863216400e-07-2.527997383341e+00 1.173466444016e-07
    9.694031260456e-01 2.801250000000e+02-2.564128731557e+00-8.202127365813e-09
    7.786038605475e-11 1.000000000000e+00 2.160000000000e+03 0.000000000000e+00
    2.400000000000e+00 0.000000000000e+00 2.328306436539e-09 4.300000000000e+01
    2.736000000000e+05 4.000000000000e+00
 7 21  6  2  6  0  0.0 1.674140803516e-04 1.011812855722e-11 0.000000000000e+00
    2.400000000000e+01 4.390625000000e+01 5.084140346281e-09 6.508555069958e-01
    2.564862370491e-06 1.499455759767e-02 7.454305887222e-06 5.153754714966e+03
    2.808000000000e+05-1.061707735062e-07-4.226630452466e-01 1.583248376846e-07
    9.517944580367e-01 2.322187500000e+02-2.330609549551e+00-8.479638925283e-09
   -7.071723137082e-11 1.000000000000e+00 2.160000000000e+03 0.000000000000e+00
    2.400000000000e+00 0.000000000000e+00-1.117587089539e-08 2.400000000000e+01
    2.736000000000e+05 4.000000000000e+00
29 21  6  2  6  0  0.0-3.572786226869e-04-6.366462912410e-12 0.000000000000e+00
    5.800000000000e+01 3.628125000000e+01 3.754442101869e-09-2.700984717872e+00
    1.844018697739e-06 1.893571927212e-03 9.134411811829e-06 5.153635026932e+03
    2.808000000000e+05 3.911554813385e-08 1.736430369432e+00-7.450580596924e-09
    9.837654632660e-01 2.158437500000e+02 2.155577364221e+00-7.717107162775e-09
   -1.578637185147e-10 1.000000000000e+00 2.160000000000e+03 0.000000000000e+00
    3.400000000000e+00 0.000000000000e+00-9.778887033463e-09 5.800000000000e+01
    2.736000000000e+05 4.000000000000e+00
15 21  6  2  6  0  0.0-1.452318392694e-04 2.614797267597e-12 0.000000000000e+00
    3.700000000000e+01-6.309375000000e+01 5.254504585493e-09 2.541614233600e+00
   -3.300607204437e-06 1.317502022721e-02 1.039914786816e-05 5.153625093460e+03
    2.808000000000e+05 2.421438694000e-08-1.594550306964e+00-2.104789018631e-07
    9.286544865298e-01 1.606562500000e+02 9.862667825417e-01-8.067121742287e-09
    9.536111503035e-11 1.000000000000e+00 2.160000000000e+03 0.000000000000e+00
    2.400000000000e+00 0.000000000000e+00-1.071020960808e-08 3.700000000000e+01
    2.736000000000e+05 4.000000000000e+00
 8 21  6  2  6  0  0.0-2.353033050895e-05-1.477928890381e-12 0.000000000000e+00
    7.900000000000e+01 2.437500000000e+01 4.092313318419e-09-2.797016246016e+00
    1.279637217522e-06 6.348891067319e-03 8.322298526764e-06 5.153609663010e+03
    2.808000000000e+05-5.401670932770e-08 1.645858173605e+00 7.450580596924e-09
    9.671047061929e-01 2.241562500000e+02 5.469400558487e-02-7.878899616366e-09
   -1.139333172086e-10 1.000000000000e+00 2.160000000000e+03 0.000000000000e+00
    3.400000000000e+00 0.000000000000e+00 5.122274160385e-09 7.900000000000e+01
    2.736000000000e+05 4.000000000000e+00
31 21  6  2  6  0  0.0-1.207231543958e-04-2.160049916711e-12 0.000000000000e+00
    3.800000000000e+01 3.487500000000e+01 4.899489797702e-09 8.065079805804e-02
    1.825392246246e-06 9.926814120263e-03 7.657334208488e-06 5.153793527603e+03
    2.808000000000e+05 8.195638656616e-08-4.055922351617e-01 4.842877388000e-08
    9.561170430269e-01 2.270937500000e+02 2.648355196910e-01-8.269273019842e-09
    2.821546100149e-11 1.000000000000e+00 2.160000000000e+03 0.000000000000e+00
    2.400000000000e+00 0.000000000000e+00-1.303851604462e-08 3.800000000000e+01
    2.736000000000e+05 4.000000000000e+00
30 21  6  2  6  0  0.0-4.338277503848e-04-4.774847184308e-12 0.000000000000e+00
    6.100000000000e+01 4.037500000000e+01 5.359151801612e-09 4.944794141495e-01
    2.129003405571e-06 5.263308528811e-03 6.766989827156e-06 5.153694713593e+03
    2.808000000000e+05 2.421438694000e-08-4.055855510890e-01 3.911554813385e-08
    9.370144445384e-01 2.317500000000e+02-2.772892565968e+00-8.489996499575e-09
    1.178620522847e-11 1.000000000000e+00 2.160000000000e+03 0.000000000000e+00
    2.400000000000e+00 0.000000000000e+00 3.725290298462e-09 6.100000000000e+01
    2.736000000000e+05 4.000000000000e+00
19 21  6  2  6  0  0.0 7.967464625835e-06 5.002220859751e-12 0.000000000000e+00
    3.300000000000e+01 3.353125000000e+01 3.801944080517e-09-3.683030399514e-01
    1.838430762291e-06 9.302439750172e-03 8.510425686836e-06 5.153634517670e+03
    2.808000000000e+05-2.589076757431e-07 1.769118701912e+00 0.000000000000e+00
    9.804406747181e-01 2.302500000000e+02 1.847850468903e+00-7.821040063426e-09
   -2.107230631757e-11 1.000000000000e+00 2.160000000000e+03 0.000000000000e+00
    2.400000000000e+00 0.000000000000e+00-1.536682248116e-08 3.300000000000e+01
    2.736000000000e+05 4.000000000000e+00
21 21  6  2  6  0  0.0 1.222859136760e-04 2.614797267597e-12 0.000000000000e+00
    1.700000000000e+01 3.112500000000e+01 4.307322274405e-09-2.686398921378e+00
    1.803040504456e-06 2.403803938068e-02 5.042180418968e-06 5.153688459396e+03
    2.808000000000e+05 1.080334186554e-07 2.637082561691e+00 2.961605787277e-07
    9.574322210093e-01 2.723125000000e+02-1.131723483683e+00-7.792110286956e-09
    3.250135381184e-10 1.000000000000e+00 2.160000000000e+03 0.000000000000e+00
    2.400000000000e+00 0.000000000000e+00-1.024454832077e-08 1.700000000000e+01
    2.736000000000e+05 4.000000000000e+00
